COSMOS 1933             
1 18958U 88020A   22335.27180584  .00001213  00000+0  82957-4 0  9990
2 18958  82.5274 338.9927 0010400 346.9073  13.1882 15.05218209869895
SL-3 R/B                
1 19046U 88032B   22335.51505425  .00002123  00000+0  15413-3 0  9997
2 19046  97.4034 327.2354 0037148  31.9462 328.4006 15.04375239871720
SL-16 R/B               
1 19120U 88039B   22335.56176122 -.00000171  00000+0 -58498-4 0  9994
2 19120  71.0156  72.8188 0021672   5.3432 354.7920 14.19272715788938
COSMOS 1953             
1 19210U 88050A   22335.25729432  .00002797  00000+0  17892-3 0  9997
2 19210  82.5121 258.4165 0013216 313.0065  47.0055 15.08162699856698
SL-8 R/B                
1 19257U 88053B   22335.53075256  .00000266  00000+0  96925-4 0  9994
2 19257  74.0462 151.2894 0021454 268.2935 112.1671 14.37675705804916
COSMOS 1975             
1 19573U 88093A   22335.42080806  .00002946  00000+0  19395-3 0  9996
2 19573  82.5210 214.4684 0013918 346.6990  13.3868 15.07111623838424
SL-14 R/B               
1 19574U 88093B   22335.28388154  .00000325  00000+0  36315-4 0  9999
2 19574  82.5327  81.3140 0022142  28.0985   2.0991 14.83612020823826
SL-16 R/B               
1 19650U 88102B   22335.41058034 -.00000154  00000+0 -53804-4 0  9995
2 19650  70.9981 143.7339 0013402  19.5246 340.6388 14.15852266757836
INTERCOSMOS 24          
1 20261U 89080A   22335.42526368  .00000736  00000+0  21499-3 0  9990
2 20261  82.5994 159.6174 1200615 177.6041 183.1593 12.56602043516623
SL-14 R/B               
1 20262U 89080C   22335.42947845  .00000279  00000+0  77692-4 0  9997
2 20262  82.5953 219.3120 1236449  31.7997 335.2034 12.49132766510961
DELTA 2 R/B(1)          
1 20303U 89085B   22335.35391250  .00021631  00000+0  46076-3 0  9999
2 20303  35.6370 102.7845 0068556 280.0742  79.2260 15.41489575806160
DELTA 1 R/B             
1 20323U 89089B   22335.31206288  .00000241  00000+0  71330-4 0  9993
2 20323  97.0658 350.0687 0069988 289.4105  69.9537 14.48615647722696
ARIANE 40 R/B           
1 20443U 90005H   22335.45143481  .00000170  00000+0  70145-4 0  9990
2 20443  98.4660  41.0518 0010461 180.8773 179.2397 14.38315617721044
DELTA 2 R/B(1)          
1 20453U 90008B   22335.14558718  .00008601  00000+0  43295-3 0  9995
2 20453  35.6255 352.6417 0259373 253.1380 104.0743 14.91793819744793
COSMOS 2058             
1 20465U 90010A   22335.41451804  .00001182  00000+0  94218-4 0  9998
2 20465  82.4867 129.6625 0016286  58.0265 302.2539 14.99365787762642
SL-14 R/B               
1 20466U 90010B   22335.37178505  .00000339  00000+0  40084-4 0  9993
2 20466  82.5013 307.2820 0018828 270.9217  88.9840 14.81648347751529
SL-14 R/B               
1 20511U 90018B   22335.24266948  .00000310  00000+0  37540-4 0  9999
2 20511  82.5236 257.7899 0018763  59.0336  93.4826 14.80294103745768
HST                     
1 20580U 90037B   22334.89240056  .00001987  00000+0  10429-3 0  9995
2 20580  28.4683 145.4026 0002742  38.2283  79.6566 15.11326843591414
SL-16 R/B               
1 20625U 90046B   22335.30276772 -.00000212  00000+0 -85328-4 0  9999
2 20625  70.9996 285.6888 0016236 312.6809  47.2944 14.14714715679455
COSMOS 2084             
1 20663U 90055A   22335.46679386  .00001100  00000+0  10566-3 0  9992
2 20663  62.7930  50.9672 0129507  66.7158 294.7506 14.93509266757234
SL-6 R/B(2)             
1 20666U 90055D   22335.48970730  .00001111  00000+0  10505-3 0  9999
2 20666  62.7835 324.9379 0132455  88.6246 273.0018 14.93798768759200
SL-8 R/B                
1 20775U 90078B   22335.59113716  .00007170  00000+0  33334-3 0  9996
2 20775  82.9252 203.6116 0538305 283.9515  70.2395 14.42784039634592
SL-8 R/B                
1 21088U 91006B   22335.28075838  .00000151  00000+0  13655-3 0  9990
2 21088  82.9413 338.4095 0023536 137.6531 233.6558 13.77225717599653
OKEAN-3                 
1 21397U 91039A   22335.47879806  .00001254  00000+0  11432-3 0  9993
2 21397  82.5232  43.5381 0018335  49.3692 310.9120 14.94199261686117
COSMOS 2151             
1 21422U 91042A   22335.42810440  .00000943  00000+0  88067-4 0  9993
2 21422  82.4984 148.6238 0015228 112.5325 247.7509 14.93016420684593
SL-14 R/B               
1 21423U 91042B   22335.24357579  .00000289  00000+0  35113-4 0  9990
2 21423  82.4945 258.6318 0016968 196.2166 163.8507 14.80040335676298
ERS-1                   
1 21574U 91050A   22335.35093656  .00000133  00000+0  58672-4 0  9994
2 21574  98.7201 306.3981 0033388 141.5646 218.7927 14.37970414644000
ARIANE 40 R/B           
1 21610U 91050F   22335.45337047  .00000196  00000+0  73985-4 0  9994
2 21610  98.3640  41.5666 0004360  87.4969 272.6719 14.41157387646883
INTERCOSMOS 25          
1 21819U 91086A   22335.37714727  .00000802  00000+0  15523-3 0  9996
2 21819  82.6068 308.6152 1512918 159.5843 207.3057 12.06204290352358
SL-8 R/B                
1 21876U 92008B   22335.58976490  .00000049  00000+0  34882-4 0  9997
2 21876  82.9280  75.5926 0033935 227.6613 143.3887 13.75717490545225
SL-8 R/B                
1 21938U 92020B   22335.20232397 -.00000025  00000+0 -41853-4 0  9992
2 21938  82.9277 320.7841 0029978  33.7998 337.5225 13.75315032536932
COSMOS 2219             
1 22219U 92076A   22335.30026485  .00000191  00000+0  12566-3 0  9996
2 22219  71.0613 354.1317 0019819 229.8766 130.0620 14.13720249549551
SL-16 R/B               
1 22220U 92076B   22335.56503549  .00000146  00000+0  97466-4 0  9990
2 22220  70.9987 183.0552 0010910 120.4460 275.0620 14.16516743552712
COSMOS 2221             
1 22236U 92080A   22335.43348111  .00001000  00000+0  10393-3 0  9993
2 22236  82.5063 335.7347 0015375 218.6228 141.3891 14.88840767602674
SL-16 R/B               
1 22285U 92093B   22335.48673060 -.00000144  00000+0 -49909-4 0  9996
2 22285  71.0222 350.5498 0006203 308.5566  51.5001 14.15112826544199
COSMOS 2228             
1 22286U 92094A   22335.17871092  .00001230  00000+0  12736-3 0  9991
2 22286  82.5185 293.2631 0020264 346.0172  14.0482 14.89115938597834
SL-16 R/B               
1 22566U 93016B   22335.07174569 -.00000279  00000+0 -11949-3 0  9990
2 22566  71.0074 203.6164 0011498 329.7017  30.3440 14.15021183533164
COSMOS 2242             
1 22626U 93024A   22335.38508756  .00001066  00000+0  11069-3 0  9995
2 22626  82.5198 321.5922 0018091 346.2633  13.8090 14.88931119602243
SL-16 R/B               
1 22803U 93059B   22335.09777818 -.00000218  00000+0 -84307-4 0  9991
2 22803  70.9910   9.5910 0019212 235.1759 124.7558 14.16887660510302
ARIANE 40 R/B           
1 22830U 93061H   22335.42300002  .00000157  00000+0  75690-4 0  9993
2 22830  98.6446  37.7031 0010565 203.4394 156.6309 14.31622475523158
COSMOS 2278             
1 23087U 94023A   22335.50676613 -.00000160  00000+0 -59287-4 0  9990
2 23087  71.0526 152.5566 0007220  37.3388 322.8234 14.13901660475984
SL-16 R/B               
1 23088U 94023B   22335.53942182 -.00000019  00000+0  15076-4 0  9991
2 23088  71.0019  58.1407 0005517 295.7158  64.3395 14.14731833477183
SL-16 R/B               
1 23343U 94074B   22335.43101487  .00000263  00000+0  44258-4 0  9999
2 23343  97.8711  24.5701 0007897 129.8629 241.0103 14.77157079510811
SL-16 R/B               
1 23405U 94077B   22335.41809531  .00000261  00000+0  15845-3 0  9991
2 23405  70.9832 344.4061 0003453 222.1419 137.9438 14.15276898447240
ERS-2                   
1 23560U 95021A   22335.25473151  .00008178  00000+0  29173-3 0  9994
2 23560  98.5035 263.9020 0003484  17.2333 342.9021 15.29210817478789
ARIANE 40+ R/B          
1 23561U 95021B   22335.44030784  .00000184  00000+0  75308-4 0  9998
2 23561  98.6030  33.2358 0007996 108.1319 262.6673 14.38237350447499
SL-16 R/B               
1 23705U 95058B   22335.50532617  .00000334  00000+0  19627-3 0  9995
2 23705  71.0203 166.7651 0011320 147.9665 212.2148 14.15190581398880
SL-16 R/B               
1 24298U 96051B   22335.52120812  .00000128  00000+0  95737-4 0  9997
2 24298  70.8232 178.2805 0013295 109.8876 250.3678 14.12456640353026
ORBVIEW 2 (SEASTAR)     
1 24883U 97037A   22335.29403491  .00000233  00000+0  99955-4 0  9996
2 24883  98.7012  99.4011 0002103   7.3005 352.8209 14.33833924337214
SL-16 R/B               
1 25400U 98043G   22335.54712898  .00000045  00000+0  37764-4 0  9993
2 25400  98.6883 269.9339 0008917 240.1381 119.8913 14.25544461268824
SL-16 R/B               
1 25407U 98045B   22335.24583895  .00000119  00000+0  84747-4 0  9997
2 25407  71.0094 172.7926 0006069  32.1966 327.9527 14.15876898258011
ISS (ZARYA)             
1 25544U 98067A   22335.45933344  .00009024  00000+0  16786-3 0  9995
2 25544  51.6453 227.9341 0004477 115.9922  56.3514 15.49661165371127
CZ-4B R/B               
1 25732U 99025C   22335.41303307  .00000028  00000+0  35218-4 0  9992
2 25732  98.8338  16.0792 0037585 168.7806 202.8794 14.17759254218917
OKEAN-O                 
1 25860U 99039A   22335.10767015  .00000297  00000+0  49461-4 0  9998
2 25860  98.1188  16.2384 0000961 110.5179 249.6134 14.77101616257852
SL-16 R/B               
1 25861U 99039B   22335.32366759  .00000306  00000+0  48772-4 0  9998
2 25861  98.1637   4.9684 0016115 152.0077 208.2003 14.78973558260162
DELTA 2 R/B             
1 25876U 99041E   22335.52845293  .00000308  00000+0  93611-4 0  9998
2 25876  51.7645   7.2413 0528767  81.6907 284.3598 14.05404482194714
HELIOS 1B               
1 25977U 99064A   22334.80423104  .00000428  00000+0  59868-4 0  9997
2 25977  98.3089 175.6805 0001378  32.5268 327.6029 14.82961428507934
TERRA                   
1 25994U 99068A   22335.56510881  .00000309  00000+0  75483-4 0  9992
2 25994  98.1205  43.6277 0001317  20.8611  86.6285 14.58926303220847
SL-16 R/B               
1 26070U 00006B   22335.58803377 -.00000069  00000+0 -10638-4 0  9995
2 26070  71.0021  87.9769 0017566 206.3915 153.6315 14.15504492179562
